[
    {
        "Altitude(m)": 558749.6492155561,
        "Argument of Periapsis(deg)": 0.019868973332140504,
        "Eccentricity": 0.0,
        "Inclination(deg)": 53.0,
        "Latitude(deg)": 48.12833004728452,
        "Longitude(deg)": -10.65140234188391,
        "Mean Anomaly(deg)": 68.45667860273275,
        "RAAN(deg)": 34.97043010558405,
        "Satellite Name": "Starlink Shell 1 156",
        "Satellite Number": 156,
        "Semi-Major Axis(m)": 6931778.249405717,
        "Time(s)": 570
    },
    {
        "Altitude(m)": 558811.9134788652,
        "Argument of Periapsis(deg)": 0.02021755181165174,
        "Eccentricity": 0.0,
        "Inclination(deg)": 53.0,
        "Latitude(deg)": 48.4001687974977,
        "Longitude(deg)": -9.846126303965836,
        "Mean Anomaly(deg)": 69.08350980628947,
        "RAAN(deg)": 34.96991133550657,
        "Satellite Name": "Starlink Shell 1 156",
        "Satellite Number": 156,
        "Semi-Major Axis(m)": 6931778.249405717,
        "Time(s)": 580
    },
    {
        "Altitude(m)": 558872.7672102168,
        "Argument of Periapsis(deg)": 0.020566130291162974,
        "Eccentricity": 0.0,
        "Inclination(deg)": 53.0,
        "Latitude(deg)": 48.665702317681585,
        "Longitude(deg)": -9.03189454310576,
        "Mean Anomaly(deg)": 69.7103410098462,
        "RAAN(deg)": 34.969392565429104,
        "Satellite Name": "Starlink Shell 1 156",
        "Satellite Number": 156,
        "Semi-Major Axis(m)": 6931778.249405717,
        "Time(s)": 590
    },
    {
        "Altitude(m)": 558932.1731581596,
        "Argument of Periapsis(deg)": 0.020914708770674213,
        "Eccentricity": 0.0,
        "Inclination(deg)": 53.0,
        "Latitude(deg)": 48.92480598279382,
        "Longitude(deg)": -8.20874441998891,
        "Mean Anomaly(deg)": 70.3371722134029,
        "RAAN(deg)": 34.968873795351634,
        "Satellite Name": "Starlink Shell 1 156",
        "Satellite Number": 156,
        "Semi-Major Axis(m)": 6931778.249405717,
        "Time(s)": 600
    },
    {
        "Altitude(m)": 558990.0950077595,
        "Argument of Periapsis(deg)": 0.021263287250185448,
        "Eccentricity": 0.0,
        "Inclination(deg)": 53.0,
        "Latitude(deg)": 49.17735510248094,
        "Longitude(deg)": -7.376726018148259,
        "Mean Anomaly(deg)": 70.96400341695961,
        "RAAN(deg)": 34.96835502527416,
        "Satellite Name": "Starlink Shell 1 156",
        "Satellite Number": 156,
        "Semi-Major Axis(m)": 6931778.249405717,
        "Time(s)": 610
    },
    {
        "Altitude(m)": 559046.4973985256,
        "Argument of Periapsis(deg)": 0.021611865729696686,
        "Eccentricity": 0.0,
        "Inclination(deg)": 53.0,
        "Latitude(deg)": 49.42322511594681,
        "Longitude(deg)": -6.535902156223987,
        "Mean Anomaly(deg)": 71.59083462051633,
        "RAAN(deg)": 34.96783625519669,
        "Satellite Name": "Starlink Shell 1 156",
        "Satellite Number": 156,
        "Semi-Major Axis(m)": 6931778.249405717,
        "Time(s)": 620
    },
    {
        "Altitude(m)": 559101.3459418077,
        "Argument of Periapsis(deg)": 0.02196044420920792,
        "Eccentricity": 0.0,
        "Inclination(deg)": 53.0,
        "Latitude(deg)": 49.66229179784088,
        "Longitude(deg)": -5.686350060273357,
        "Mean Anomaly(deg)": 72.21766582407305,
        "RAAN(deg)": 34.96731748511921,
        "Satellite Name": "Starlink Shell 1 156",
        "Satellite Number": 156,
        "Semi-Major Axis(m)": 6931778.249405717,
        "Time(s)": 630
    },
    {
        "Altitude(m)": 559154.6072377457,
        "Argument of Periapsis(deg)": 0.02230902268871916,
        "Eccentricity": 0.0,
        "Inclination(deg)": 53.0,
        "Latitude(deg)": 49.89443147492172,
        "Longitude(deg)": -4.82816048899549,
        "Mean Anomaly(deg)": 72.84449702762976,
        "RAAN(deg)": 34.96679871504174,
        "Satellite Name": "Starlink Shell 1 156",
        "Satellite Number": 156,
        "Semi-Major Axis(m)": 6931778.249405717,
        "Time(s)": 640
    },
    {
        "Altitude(m)": 559206.2488916934,
        "Argument of Periapsis(deg)": 0.022657601168230398,
        "Eccentricity": 0.0,
        "Inclination(deg)": 53.0,
        "Latitude(deg)": 50.119521253133364,
        "Longitude(deg)": -3.961439349875749,
        "Mean Anomaly(deg)": 73.47132823118648,
        "RAAN(deg)": 34.96627994496427,
        "Satellite Name": "Starlink Shell 1 156",
        "Satellite Number": 156,
        "Semi-Major Axis(m)": 6931778.249405717,
        "Time(s)": 650
    },
    {
        "Altitude(m)": 559256.2395301441,
        "Argument of Periapsis(deg)": 0.023006179647741636,
        "Eccentricity": 0.0,
        "Inclination(deg)": 53.0,
        "Latitude(deg)": 50.33743925464333,
        "Longitude(deg)": -3.08630759876448,
        "Mean Anomaly(deg)": 74.0981594347432,
        "RAAN(deg)": 34.965761174886794,
        "Satellite Name": "Starlink Shell 1 156",
        "Satellite Number": 156,
        "Semi-Major Axis(m)": 6931778.249405717,
        "Time(s)": 660
    },
    {
        "Altitude(m)": 559304.5488161396,
        "Argument of Periapsis(deg)": 0.023354758127252868,
        "Eccentricity": 0.0,
        "Inclination(deg)": 53.0,
        "Latitude(deg)": 50.54806486427017,
        "Longitude(deg)": -2.2029010986904716,
        "Mean Anomaly(deg)": 74.72499063829991,
        "RAAN(deg)": 34.96524240480932,
        "Satellite Name": "Starlink Shell 1 156",
        "Satellite Number": 156,
        "Semi-Major Axis(m)": 6931778.249405717,
        "Time(s)": 670
    },
    {
        "Altitude(m)": 559351.1474641734,
        "Argument of Periapsis(deg)": 0.023703336606764106,
        "Eccentricity": 0.0,
        "Inclination(deg)": 53.0,
        "Latitude(deg)": 50.75127898461269,
        "Longitude(deg)": -1.3113719455538297,
        "Mean Anomaly(deg)": 75.35182184185663,
        "RAAN(deg)": 34.96472363473185,
        "Satellite Name": "Starlink Shell 1 156",
        "Satellite Number": 156,
        "Semi-Major Axis(m)": 6931778.249405717,
        "Time(s)": 680
    },
    {
        "Altitude(m)": 559396.0072545517,
        "Argument of Periapsis(deg)": 0.024051915086275345,
        "Eccentricity": 0.0,
        "Inclination(deg)": 53.0,
        "Latitude(deg)": 50.9469642990846,
        "Longitude(deg)": -0.4118882297280508,
        "Mean Anomaly(deg)": 75.97865304541332,
        "RAAN(deg)": 34.96420486465438,
        "Satellite Name": "Starlink Shell 1 156",
        "Satellite Number": 156,
        "Semi-Major Axis(m)": 6931778.249405717,
        "Time(s)": 690
    },
    {
        "Altitude(m)": 559439.1010472258,
        "Argument of Periapsis(deg)": 0.024400493565786583,
        "Eccentricity": 0.0,
        "Inclination(deg)": 53.0,
        "Latitude(deg)": 51.13500554192954,
        "Longitude(deg)": 0.4953662587165904,
        "Mean Anomaly(deg)": 76.60548424897004,
        "RAAN(deg)": 34.9636860945769,
        "Satellite Name": "Starlink Shell 1 156",
        "Satellite Number": 156,
        "Semi-Major Axis(m)": 6931778.249405717,
        "Time(s)": 700
    },
    {
        "Altitude(m)": 559480.4027950985,
        "Argument of Periapsis(deg)": 0.024749072045297815,
        "Eccentricity": 0.0,
        "Inclination(deg)": 53.0,
        "Latitude(deg)": 51.315289774172406,
        "Longitude(deg)": 1.4101908733165427,
        "Mean Anomaly(deg)": 77.23231545252678,
        "RAAN(deg)": 34.96316732449943,
        "Satellite Name": "Starlink Shell 1 156",
        "Satellite Number": 156,
        "Semi-Major Axis(m)": 6931778.249405717,
        "Time(s)": 710
    },
    {
        "Altitude(m)": 559519.8875567777,
        "Argument of Periapsis(deg)": 0.025097650524809053,
        "Eccentricity": 0.0,
        "Inclination(deg)": 53.0,
        "Latitude(deg)": 51.48770666435353,
        "Longitude(deg)": 2.3323685336019877,
        "Mean Anomaly(deg)": 77.8591466560835,
        "RAAN(deg)": 34.96264855442196,
        "Satellite Name": "Starlink Shell 1 156",
        "Satellite Number": 156,
        "Semi-Major Axis(m)": 6931778.249405717,
        "Time(s)": 720
    },
    {
        "Altitude(m)": 559557.5315087873,
        "Argument of Periapsis(deg)": 0.02544622900432029,
        "Eccentricity": 0.0,
        "Inclination(deg)": 53.0,
        "Latitude(deg)": 51.652148772769124,
        "Longitude(deg)": 3.261666218212642,
        "Mean Anomaly(deg)": 78.48597785964019,
        "RAAN(deg)": 34.962129784344484,
        "Satellite Name": "Starlink Shell 1 156",
        "Satellite Number": 156,
        "Semi-Major Axis(m)": 6931778.249405717,
        "Time(s)": 730
    },
    {
        "Altitude(m)": 559593.3119572131,
        "Argument of Periapsis(deg)": 0.02579480748383153,
        "Eccentricity": 0.0,
        "Inclination(deg)": 53.0,
        "Latitude(deg)": 51.808511837832775,
        "Longitude(deg)": 4.197834020015579,
        "Mean Anomaly(deg)": 79.1128090631969,
        "RAAN(deg)": 34.961611014267014,
        "Satellite Name": "Starlink Shell 1 156",
        "Satellite Number": 156,
        "Semi-Major Axis(m)": 6931778.249405717,
        "Time(s)": 740
    },
    {
        "Altitude(m)": 559627.2073488027,
        "Argument of Periapsis(deg)": 0.026143385963342765,
        "Eccentricity": 0.0,
        "Inclination(deg)": 53.0,
        "Latitude(deg)": 51.9566950630794,
        "Longitude(deg)": 5.140605792660123,
        "Mean Anomaly(deg)": 79.73964026675363,
        "RAAN(deg)": 34.961092244189544,
        "Satellite Name": "Starlink Shell 1 156",
        "Satellite Number": 156,
        "Semi-Major Axis(m)": 6931778.249405717,
        "Time(s)": 750
    }
]